{"type": "FeatureCollection", "features": [ {"type": "Feature", "properties": {"norad_id": 28659, "name": "DIRECTV 8", "group": "intelsat", "lat": -0.032638438756838764, "lon": -68.31646034037568, "alt_km": 35774.018739663145, "timestamp": "2025-12-18T21:31:50.650070+00:00", "meta": {"OBJECT_NAME": "DIRECTV 8", "OBJECT_ID": "2005-019A", "EPOCH": "2025-12-17T23:01:54.788160", "MEAN_MOTION": 1.00272995, "ECCENTRICITY": 0.00028611, "INCLINATION": 0.0186, "RA_OF_ASC_NODE": 333.7811, "ARG_OF_PERICENTER": 302.57, "MEAN_ANOMALY": 36.9238, "EPHEMERIS_TYPE": 0, "CLASSIFICATION_TYPE": "U", "NORAD_CAT_ID": 28659, "ELEMENT_SET_NO": 999, "REV_AT_EPOCH": 7525, "BSTAR": 0, "MEAN_MOTION_DOT": 2.6e-07, "MEAN_MOTION_DDOT": 0}, "tle": {"line1": "1 28659U 05019A   25351.95966190  .00000026  00000+0  00000+0 0  9992", "line2": "2 28659   0.0186 333.7811 0002861 302.5700  36.9238  1.00272995 75252"}}, "geometry": {"type": "Point", "coordinates": [-68.31646034037568, -0.032638438756838764]}}, {"type": "Feature", "properties": {"norad_id": 28702, "name": "GALAXY 28 (G-28)", "group": "intelsat", "lat": -2.4894840551195023, "lon": -38.001662909229296, "alt_km": 35778.579574473384, "timestamp": "2025-12-18T21:31:50.650082+00:00", "meta": {"OBJECT_NAME": "GALAXY 28 (G-28)", "OBJECT_ID": "2005-022A", "EPOCH": "2025-12-18T06:06:32.738112", "MEAN_MOTION": 1.00270657, "ECCENTRICITY": 0.00029083, "INCLINATION": 2.8335, "RA_OF_ASC_NODE": 81.2191, "ARG_OF_PERICENTER": 192.4927, "MEAN_ANOMALY": 176.342, "EPHEMERIS_TYPE": 0, "CLASSIFICATION_TYPE": "U", "NORAD_CAT_ID": 28702, "ELEMENT_SET_NO": 999, "REV_AT_EPOCH": 5016, "BSTAR": 0, "MEAN_MOTION_DOT": -1.64e-06, "MEAN_MOTION_DDOT": 0}, "tle": {"line1": "1 28702U 05022A   25352.25454558 -.00000164  00000+0  00000+0 0  9993", "line2": "2 28702   2.8335  81.2191 0002908 192.4927 176.3420  1.00270657 50160"}}, "geometry": {"type": "Point", "coordinates": [-38.001662909229296, -2.4894840551195023]}}, {"type": "Feature", "properties": {"norad_id": 29236, "name": "GALAXY 16 (G-16)", "group": "intelsat", "lat": -0.001842045290618537, "lon": -48.277307057380746, "alt_km": 35779.11698518911, "timestamp": "2025-12-18T21:31:50.650097+00:00", "meta": {"OBJECT_NAME": "GALAXY 16 (G-16)", "OBJECT_ID": "2006-023A", "EPOCH": "2025-12-18T06:05:02.963328", "MEAN_MOTION": 1.00271603, "ECCENTRICITY": 0.00024752, "INCLINATION": 0.0336, "RA_OF_ASC_NODE": 214.3028, "ARG_OF_PERICENTER": 49.4878, "MEAN_ANOMALY": 175.5896, "EPHEMERIS_TYPE": 0, "CLASSIFICATION_TYPE": "U", "NORAD_CAT_ID": 29236, "ELEMENT_SET_NO": 999, "REV_AT_EPOCH": 7115, "BSTAR": 0, "MEAN_MOTION_DOT": -1.02e-06, "MEAN_MOTION_DDOT": 0}, "tle": {"line1": "1 29236U 06023A   25352.25350652 -.00000102  00000+0  00000+0 0  9990", "line2": "2 29236   0.0336 214.3028 0002475  49.4878 175.5896  1.00271603 71159"}}, "geometry": {"type": "Point", "coordinates": [-48.277307057380746, -0.001842045290618537]}}, {"type": "Feature", "properties": {"norad_id": 29494, "name": "DIRECTV 9S", "group": "intelsat", "lat": -1.4336707624181442, "lon": -50.501143664879805, "alt_km": 35776.74263683077, "timestamp": "2025-12-18T21:31:50.650110+00:00", "meta": {"OBJECT_NAME": "DIRECTV 9S", "OBJECT_ID": "2006-043A", "EPOCH": "2025-12-18T05:59:44.154240", "MEAN_MOTION": 1.00271862, "ECCENTRICITY": 0.00028168, "INCLINATION": 1.9537, "RA_OF_ASC_NODE": 83.1544, "ARG_OF_PERICENTER": 189.3182, "MEAN_ANOMALY": 163.3656, "EPHEMERIS_TYPE": 0, "CLASSIFICATION_TYPE": "U", "NORAD_CAT_ID": 29494, "ELEMENT_SET_NO": 999, "REV_AT_EPOCH": 4956, "BSTAR": 0, "MEAN_MOTION_DOT": -9e-07, "MEAN_MOTION_DDOT": 0}, "tle": {"line1": "1 29494U 06043A   25352.24981660 -.00000090  00000+0  00000+0 0  9992", "line2": "2 29494   1.9537  83.1544 0002816 189.3182 163.3656  1.00271862 49560"}}, "geometry": {"type": "Point", "coordinates": [-50.501143664879805, -1.4336707624181442]}}, {"type": "Feature", "properties": {"norad_id": 31307, "name": "GALAXY 17 (G-17)", "group": "intelsat", "lat": -2.2649005071582677, "lon": -34.22312349083204, "alt_km": 35780.0249618284, "timestamp": "2025-12-18T21:31:50.650121+00:00", "meta": {"OBJECT_NAME": "GALAXY 17 (G-17)", "OBJECT_ID": "2007-016B", "EPOCH": "2025-12-18T06:01:21.974592", "MEAN_MOTION": 1.00272118, "ECCENTRICITY": 0.00054848, "INCLINATION": 2.5134, "RA_OF_ASC_NODE": 82.2243, "ARG_OF_PERICENTER": 169.1447, "MEAN_ANOMALY": 201.1185, "EPHEMERIS_TYPE": 0, "CLASSIFICATION_TYPE": "U", "NORAD_CAT_ID": 31307, "ELEMENT_SET_NO": 999, "REV_AT_EPOCH": 6799, "BSTAR": 0, "MEAN_MOTION_DOT": -1.83e-06, "MEAN_MOTION_DDOT": 0}, "tle": {"line1": "1 31307U 07016B   25352.25094878 -.00000183  00000+0  00000+0 0  9999", "line2": "2 31307   2.5134  82.2243 0005484 169.1447 201.1185  1.00272118 67996"}}, "geometry": {"type": "Point", "coordinates": [-34.22312349083204, -2.2649005071582677]}}, {"type": "Feature", "properties": {"norad_id": 31862, "name": "DIRECTV 10", "group": "intelsat", "lat": 0.003994115701606628, "lon": -52.11511649320659, "alt_km": 35786.31508725763, "timestamp": "2025-12-18T21:31:50.650133+00:00", "meta": {"OBJECT_NAME": "DIRECTV 10", "OBJECT_ID": "2007-032A", "EPOCH": "2025-12-18T05:58:46.307712", "MEAN_MOTION": 1.00267583, "ECCENTRICITY": 2.412e-05, "INCLINATION": 0.0055, "RA_OF_ASC_NODE": 112.5031, "ARG_OF_PERICENTER": 215.4513, "MEAN_ANOMALY": 106.0457, "EPHEMERIS_TYPE": 0, "CLASSIFICATION_TYPE": "U", "NORAD_CAT_ID": 31862, "ELEMENT_SET_NO": 999, "REV_AT_EPOCH": 4377, "BSTAR": 0, "MEAN_MOTION_DOT": -7.7e-07, "MEAN_MOTION_DDOT": 0}, "tle": {"line1": "1 31862U 07032A   25352.24914708 -.00000077  00000+0  00000+0 0  9997", "line2": "2 31862   0.0055 112.5031 0000241 215.4513 106.0457  1.00267583 43779"}}, "geometry": {"type": "Point", "coordinates": [-52.11511649320659, 0.003994115701606628]}}, {"type": "Feature", "properties": {"norad_id": 32253, "name": "INTELSAT 11 (IS-11)", "group": "intelsat", "lat": 0.5958682479402281, "lon": -110.68181885613056, "alt_km": 36094.93757613619, "timestamp": "2025-12-18T21:31:50.650145+00:00", "meta": {"OBJECT_NAME": "INTELSAT 11 (IS-11)", "OBJECT_ID": "2007-044B", "EPOCH": "2025-12-18T05:28:48.347040", "MEAN_MOTION": 0.99051407, "ECCENTRICITY": 0.00085749, "INCLINATION": 3.0938, "RA_OF_ASC_NODE": 80.9164, "ARG_OF_PERICENTER": 168.0916, "MEAN_ANOMALY": 121.8188, "EPHEMERIS_TYPE": 0, "CLASSIFICATION_TYPE": "U", "NORAD_CAT_ID": 32253, "ELEMENT_SET_NO": 999, "REV_AT_EPOCH": 6665, "BSTAR": 0, "MEAN_MOTION_DOT": 0, "MEAN_MOTION_DDOT": 0}, "tle": {"line1": "1 32253U 07044B   25352.22833735  .00000000  00000+0  00000+0 0  9998", "line2": "2 32253   3.0938  80.9164 0008574 168.0916 121.8188  0.99051407 66650"}}, "geometry": {"type": "Point", "coordinates": [-110.68181885613056, 0.5958682479402281]}}, {"type": "Feature", "properties": {"norad_id": 32388, "name": "HORIZONS-2", "group": "intelsat", "lat": -2.0620489222506135, "lon": -23.040845049872214, "alt_km": 35777.163166095845, "timestamp": "2025-12-18T21:31:50.650157+00:00", "meta": {"OBJECT_NAME": "HORIZONS-2", "OBJECT_ID": "2007-063B", "EPOCH": "2025-12-18T06:15:12.515328", "MEAN_MOTION": 1.00272593, "ECCENTRICITY": 0.00045652, "INCLINATION": 2.1352, "RA_OF_ASC_NODE": 82.9044, "ARG_OF_PERICENTER": 191.9486, "MEAN_ANOMALY": 192.2893, "EPHEMERIS_TYPE": 0, "CLASSIFICATION_TYPE": "U", "NORAD_CAT_ID": 32388, "ELEMENT_SET_NO": 999, "REV_AT_EPOCH": 6600, "BSTAR": 0, "MEAN_MOTION_DOT": -2.3e-06, "MEAN_MOTION_DDOT": 0}, "tle": {"line1": "1 32388U 07063B   25352.26056152 -.00000230  00000+0  00000+0 0  9998", "line2": "2 32388   2.1352  82.9044 0004565 191.9486 192.2893  1.00272593 66009"}}, "geometry": {"type": "Point", "coordinates": [-23.040845049872214, -2.0620489222506135]}}, {"type": "Feature", "properties": {"norad_id": 32729, "name": "DIRECTV 11", "group": "intelsat", "lat": -0.0031522699097495635, "lon": -48.51705531000279, "alt_km": 35790.669063793815, "timestamp": "2025-12-18T21:31:50.650170+00:00", "meta": {"OBJECT_NAME": "DIRECTV 11", "OBJECT_ID": "2008-013A", "EPOCH": "2025-12-17T21:24:49.087584", "MEAN_MOTION": 1.00260701, "ECCENTRICITY": 0.00010186, "INCLINATION": 0.0306, "RA_OF_ASC_NODE": 208.7035, "ARG_OF_PERICENTER": 352.6085, "MEAN_ANOMALY": 107.4644, "EPHEMERIS_TYPE": 0, "CLASSIFICATION_TYPE": "U", "NORAD_CAT_ID": 32729, "ELEMENT_SET_NO": 999, "REV_AT_EPOCH": 4377, "BSTAR": 0, "MEAN_MOTION_DOT": -9.9e-07, "MEAN_MOTION_DDOT": 0}, "tle": {"line1": "1 32729U 08013A   25351.89223481 -.00000099  00000+0  00000+0 0  9995", "line2": "2 32729   0.0306 208.7035 0001018 352.6085 107.4644  1.00260701 43772"}}, "geometry": {"type": "Point", "coordinates": [-48.51705531000279, -0.0031522699097495635]}}, {"type": "Feature", "properties": {"norad_id": 32951, "name": "GALAXY 18 (G-18)", "group": "intelsat", "lat": -0.041867530952374124, "lon": -72.28216153479703, "alt_km": 35773.99763288439, "timestamp": "2025-12-18T21:31:50.650182+00:00", "meta": {"OBJECT_NAME": "GALAXY 18 (G-18)", "OBJECT_ID": "2008-024A", "EPOCH": "2025-12-17T23:00:47.396160", "MEAN_MOTION": 1.00273043, "ECCENTRICITY": 0.0002845, "INCLINATION": 0.0179, "RA_OF_ASC_NODE": 16.0892, "ARG_OF_PERICENTER": 257.3586, "MEAN_ANOMALY": 35.5801, "EPHEMERIS_TYPE": 0, "CLASSIFICATION_TYPE": "U", "NORAD_CAT_ID": 32951, "ELEMENT_SET_NO": 999, "REV_AT_EPOCH": 4403, "BSTAR": 0, "MEAN_MOTION_DOT": 5e-07, "MEAN_MOTION_DDOT": 0}, "tle": {"line1": "1 32951U 08024A   25351.95888190  .00000050  00000+0  00000+0 0  9991", "line2": "2 32951   0.0179  16.0892 0002845 257.3586  35.5801  1.00273043 44033"}}, "geometry": {"type": "Point", "coordinates": [-72.28216153479703, -0.041867530952374124]}}]}